{"type": "FeatureCollection", "features": [ {"type": "Feature", "properties": {"norad_id": 65304, "name": "DRAGON CRS-33", "group": "stations", "lat": -36.649188020963365, "lon": 79.2838606282904, "alt_km": 420.2935844234189, "timestamp": "2025-12-18T04:58:33.358640+00:00", "meta": {"OBJECT_NAME": "DRAGON CRS-33", "OBJECT_ID": "2025-186A", "EPOCH": "2025-12-17T19:54:10.621440", "MEAN_MOTION": 15.49640803, "ECCENTRICITY": 0.00031686, "INCLINATION": 51.6309, "RA_OF_ASC_NODE": 117.2752, "ARG_OF_PERICENTER": 263.8701, "MEAN_ANOMALY": 96.1927, "EPHEMERIS_TYPE": 0, "CLASSIFICATION_TYPE": "U", "NORAD_CAT_ID": 65304, "ELEMENT_SET_NO": 999, "REV_AT_EPOCH": 11, "BSTAR": 0.00014328078, "MEAN_MOTION_DOT": 7.629e-05, "MEAN_MOTION_DDOT": 0}, "tle": {"line1": "1 65304U 25186A   25351.82928960  .00007629  00000+0  14328-3 0  9994", "line2": "2 65304  51.6309 117.2752 0003168 263.8701  96.1927 15.49640803   110"}}, "geometry": {"type": "Point", "coordinates": [79.2838606282904, -36.649188020963365]}}, {"type": "Feature", "properties": {"norad_id": 65586, "name": "PROGRESS-MS 32", "group": "stations", "lat": -36.649187612230975, "lon": 79.28386125049437, "alt_km": 420.2935844199119, "timestamp": "2025-12-18T04:58:33.358650+00:00", "meta": {"OBJECT_NAME": "PROGRESS-MS 32", "OBJECT_ID": "2025-204A", "EPOCH": "2025-12-17T19:54:10.621440", "MEAN_MOTION": 15.49640803, "ECCENTRICITY": 0.00031686, "INCLINATION": 51.6309, "RA_OF_ASC_NODE": 117.2752, "ARG_OF_PERICENTER": 263.8701, "MEAN_ANOMALY": 96.1927, "EPHEMERIS_TYPE": 0, "CLASSIFICATION_TYPE": "U", "NORAD_CAT_ID": 65586, "ELEMENT_SET_NO": 999, "REV_AT_EPOCH": 27, "BSTAR": 0.00014328078, "MEAN_MOTION_DOT": 7.629e-05, "MEAN_MOTION_DDOT": 0}, "tle": {"line1": "1 65586U 25204A   25351.82928960  .00007629  00000+0  14328-3 0  9997", "line2": "2 65586  51.6309 117.2752 0003168 263.8701  96.1927 15.49640803   279"}}, "geometry": {"type": "Point", "coordinates": [79.28386125049437, -36.649187612230975]}}, {"type": "Feature", "properties": {"norad_id": 65616, "name": "CYGNUS NG-23", "group": "stations", "lat": -36.64918712175242, "lon": 79.28386199713867, "alt_km": 420.2935844156991, "timestamp": "2025-12-18T04:58:33.358662+00:00", "meta": {"OBJECT_NAME": "CYGNUS NG-23", "OBJECT_ID": "2025-208A", "EPOCH": "2025-12-17T19:54:10.621440", "MEAN_MOTION": 15.49640803, "ECCENTRICITY": 0.00031686, "INCLINATION": 51.6309, "RA_OF_ASC_NODE": 117.2752, "ARG_OF_PERICENTER": 263.8701, "MEAN_ANOMALY": 96.1927, "EPHEMERIS_TYPE": 0, "CLASSIFICATION_TYPE": "U", "NORAD_CAT_ID": 65616, "ELEMENT_SET_NO": 999, "REV_AT_EPOCH": 22, "BSTAR": 0.00014328078, "MEAN_MOTION_DOT": 7.629e-05, "MEAN_MOTION_DDOT": 0}, "tle": {"line1": "1 65616U 25208A   25351.82928960  .00007629  00000+0  14328-3 0  9995", "line2": "2 65616  51.6309 117.2752 0003168 263.8701  96.1927 15.49640803   228"}}, "geometry": {"type": "Point", "coordinates": [79.28386199713867, -36.64918712175242]}}, {"type": "Feature", "properties": {"norad_id": 65729, "name": "DRAGONFLY", "group": "stations", "lat": 20.95154919941953, "lon": 125.38934785132383, "alt_km": 344.75858301886547, "timestamp": "2025-12-18T04:58:33.358672+00:00", "meta": {"OBJECT_NAME": "DRAGONFLY", "OBJECT_ID": "1998-067XH", "EPOCH": "2025-12-17T13:37:12.344736", "MEAN_MOTION": 15.73531298, "ECCENTRICITY": 0.00072061, "INCLINATION": 51.6243, "RA_OF_ASC_NODE": 111.0116, "ARG_OF_PERICENTER": 308.514, "MEAN_ANOMALY": 51.5212, "EPHEMERIS_TYPE": 0, "CLASSIFICATION_TYPE": "U", "NORAD_CAT_ID": 65729, "ELEMENT_SET_NO": 999, "REV_AT_EPOCH": 1392, "BSTAR": 0.0011077639, "MEAN_MOTION_DOT": 0.00160588, "MEAN_MOTION_DDOT": 0}, "tle": {"line1": "1 65729U 98067XH  25351.56750399  .00160588  00000+0  11078-2 0  9995", "line2": "2 65729  51.6243 111.0116 0007206 308.5140  51.5212 15.73531298 13924"}}, "geometry": {"type": "Point", "coordinates": [125.38934785132383, 20.95154919941953]}}, {"type": "Feature", "properties": {"norad_id": 65731, "name": "1998-067XK", "group": "stations", "lat": -50.16895070051494, "lon": 37.67176015762739, "alt_km": 369.5102525850398, "timestamp": "2025-12-18T04:58:33.358683+00:00", "meta": {"OBJECT_NAME": "1998-067XK", "OBJECT_ID": "1998-067XK", "EPOCH": "2025-12-17T14:00:04.713696", "MEAN_MOTION": 15.66666293, "ECCENTRICITY": 0.00047593, "INCLINATION": 51.6289, "RA_OF_ASC_NODE": 112.64, "ARG_OF_PERICENTER": 277.2608, "MEAN_ANOMALY": 82.7846, "EPHEMERIS_TYPE": 0, "CLASSIFICATION_TYPE": "U", "NORAD_CAT_ID": 65731, "ELEMENT_SET_NO": 999, "REV_AT_EPOCH": 1390, "BSTAR": 0.00079228691, "MEAN_MOTION_DOT": 0.00085225, "MEAN_MOTION_DDOT": 0}, "tle": {"line1": "1 65731U 98067XK  25351.58338789  .00085225  00000+0  79229-3 0  9992", "line2": "2 65731  51.6289 112.6400 0004759 277.2608  82.7846 15.66666293 13904"}}, "geometry": {"type": "Point", "coordinates": [37.67176015762739, -50.16895070051494]}}, {"type": "Feature", "properties": {"norad_id": 65732, "name": "RSP-03", "group": "stations", "lat": -34.20118981475246, "lon": 76.05250534023634, "alt_km": 359.52726735315173, "timestamp": "2025-12-18T04:58:33.358696+00:00", "meta": {"OBJECT_NAME": "RSP-03", "OBJECT_ID": "1998-067XL", "EPOCH": "2025-12-17T13:53:35.595744", "MEAN_MOTION": 15.69845633, "ECCENTRICITY": 0.0005617, "INCLINATION": 51.6262, "RA_OF_ASC_NODE": 111.8477, "ARG_OF_PERICENTER": 283.4279, "MEAN_ANOMALY": 76.6092, "EPHEMERIS_TYPE": 0, "CLASSIFICATION_TYPE": "U", "NORAD_CAT_ID": 65732, "ELEMENT_SET_NO": 999, "REV_AT_EPOCH": 1392, "BSTAR": 0.00093703449, "MEAN_MOTION_DOT": 0.00115432, "MEAN_MOTION_DDOT": 0}, "tle": {"line1": "1 65732U 98067XL  25351.57888421  .00115432  00000+0  93703-3 0  9992", "line2": "2 65732  51.6262 111.8477 0005617 283.4279  76.6092 15.69845633 13925"}}, "geometry": {"type": "Point", "coordinates": [76.05250534023634, -34.20118981475246]}}, {"type": "Feature", "properties": {"norad_id": 65733, "name": "GHS-01", "group": "stations", "lat": 3.1769609127908636, "lon": 109.55200129425117, "alt_km": 335.30582983283875, "timestamp": "2025-12-18T04:58:33.358706+00:00", "meta": {"OBJECT_NAME": "GHS-01", "OBJECT_ID": "1998-067XM", "EPOCH": "2025-12-17T15:16:18.486912", "MEAN_MOTION": 15.76951537, "ECCENTRICITY": 0.00078677, "INCLINATION": 51.6275, "RA_OF_ASC_NODE": 109.9788, "ARG_OF_PERICENTER": 312.8661, "MEAN_ANOMALY": 47.1678, "EPHEMERIS_TYPE": 0, "CLASSIFICATION_TYPE": "U", "NORAD_CAT_ID": 65733, "ELEMENT_SET_NO": 999, "REV_AT_EPOCH": 1395, "BSTAR": 0.001249396, "MEAN_MOTION_DOT": 0.00211757, "MEAN_MOTION_DDOT": 0}, "tle": {"line1": "1 65733U 98067XM  25351.63632508  .00211757  00000+0  12494-2 0  9997", "line2": "2 65733  51.6275 109.9788 0007867 312.8661  47.1678 15.76951537 13959"}}, "geometry": {"type": "Point", "coordinates": [109.55200129425117, 3.1769609127908636]}}, {"type": "Feature", "properties": {"norad_id": 65941, "name": "YOTSUBA-KULOVER", "group": "stations", "lat": -51.27063704547341, "lon": 31.36842761333832, "alt_km": 390.8280592837373, "timestamp": "2025-12-18T04:58:33.358716+00:00", "meta": {"OBJECT_NAME": "YOTSUBA-KULOVER", "OBJECT_ID": "1998-067XN", "EPOCH": "2025-12-17T17:02:18.705408", "MEAN_MOTION": 15.6011866, "ECCENTRICITY": 0.00015575, "INCLINATION": 51.6282, "RA_OF_ASC_NODE": 114.9832, "ARG_OF_PERICENTER": 303.5564, "MEAN_ANOMALY": 56.528, "EPHEMERIS_TYPE": 0, "CLASSIFICATION_TYPE": "U", "NORAD_CAT_ID": 65941, "ELEMENT_SET_NO": 999, "REV_AT_EPOCH": 1063, "BSTAR": 0.00071726351, "MEAN_MOTION_DOT": 0.00059314, "MEAN_MOTION_DDOT": 0}, "tle": {"line1": "1 65941U 98067XN  25351.70993872  .00059314  00000+0  71726-3 0  9993", "line2": "2 65941  51.6282 114.9832 0001557 303.5564  56.5280 15.60118660 10633"}}, "geometry": {"type": "Point", "coordinates": [31.36842761333832, -51.27063704547341]}}, {"type": "Feature", "properties": {"norad_id": 65942, "name": "BOTAN", "group": "stations", "lat": -33.173457544308654, "lon": 80.44893972976571, "alt_km": 378.37788824560084, "timestamp": "2025-12-18T04:58:33.358726+00:00", "meta": {"OBJECT_NAME": "BOTAN", "OBJECT_ID": "1998-067XP", "EPOCH": "2025-12-17T16:53:46.535712", "MEAN_MOTION": 15.63910316, "ECCENTRICITY": 0.00028443, "INCLINATION": 51.6283, "RA_OF_ASC_NODE": 114.1939, "ARG_OF_PERICENTER": 279.5083, "MEAN_ANOMALY": 80.559, "EPHEMERIS_TYPE": 0, "CLASSIFICATION_TYPE": "U", "NORAD_CAT_ID": 65942, "ELEMENT_SET_NO": 999, "REV_AT_EPOCH": 1064, "BSTAR": 0.00099083952, "MEAN_MOTION_DOT": 0.00095662, "MEAN_MOTION_DDOT": 0}, "tle": {"line1": "1 65942U 98067XP  25351.70401083  .00095662  00000+0  99084-3 0  9995", "line2": "2 65942  51.6283 114.1939 0002844 279.5083  80.5590 15.63910316 10646"}}, "geometry": {"type": "Point", "coordinates": [80.44893972976571, -33.173457544308654]}}, {"type": "Feature", "properties": {"norad_id": 65943, "name": "E-KAGAKU-1", "group": "stations", "lat": -51.33579565311502, "lon": 30.49465036289543, "alt_km": 390.95247800723973, "timestamp": "2025-12-18T04:58:33.358737+00:00", "meta": {"OBJECT_NAME": "E-KAGAKU-1", "OBJECT_ID": "1998-067XQ", "EPOCH": "2025-12-17T17:02:27.271104", "MEAN_MOTION": 15.60109171, "ECCENTRICITY": 0.0001423, "INCLINATION": 51.6296, "RA_OF_ASC_NODE": 114.9884, "ARG_OF_PERICENTER": 240.8217, "MEAN_ANOMALY": 119.2634, "EPHEMERIS_TYPE": 0, "CLASSIFICATION_TYPE": "U", "NORAD_CAT_ID": 65943, "ELEMENT_SET_NO": 999, "REV_AT_EPOCH": 1063, "BSTAR": 0.0007379067, "MEAN_MOTION_DOT": 0.00061026, "MEAN_MOTION_DDOT": 0}, "tle": {"line1": "1 65943U 98067XQ  25351.71003786  .00061026  00000+0  73791-3 0  9999", "line2": "2 65943  51.6296 114.9884 0001423 240.8217 119.2634 15.60109171 10634"}}, "geometry": {"type": "Point", "coordinates": [30.49465036289543, -51.33579565311502]}}]}